{
  "norad_id": 62495,
  "name": "STARLINK-32708",
  "history": [
    {
      "epoch": "2026-03-28T13:06:08.680320Z",
      "apogee_km": 483.67794665271686,
      "perigee_km": 482.2550910049831,
      "latitude_deg": -5.1201738553698626e-05,
      "longitude_deg": 160.12764469742083,
      "height_km": 482.9245957370137,
      "semi_major_axis_km": 6861.10351882885,
      "eccentricity": 0.00010369,
      "inclination_deg": 42.9984,
      "raan_deg": 182.6287,
      "arg_perigee_deg": 255.1846,
      "mean_anomaly_deg": 104.889,
      "mean_motion_rev_day": 15.27607578
    },
    {
      "epoch": "2026-03-29T22:03:26.620704Z",
      "apogee_km": 484.4909975674427,
      "perigee_km": 481.5722564335165,
      "latitude_deg": 4.025331583165795e-05,
      "longitude_deg": 16.693677845770317,
      "height_km": 482.38196715360726,
      "semi_major_axis_km": 6861.168627000479,
      "eccentricity": 0.0002127,
      "inclination_deg": 42.9986,
      "raan_deg": 174.8728,
      "arg_perigee_deg": 287.0033,
      "mean_anomaly_deg": 73.0586,
      "mean_motion_rev_day": 15.27585834
    },
    {
      "epoch": "2026-03-30T05:54:13.975776Z",
      "apogee_km": 483.6136476848542,
      "perigee_km": 482.4541098063464,
      "latitude_deg": 1.7509627619498462e-06,
      "longitude_deg": -103.17081948340106,
      "height_km": 482.53838156364134,
      "semi_major_axis_km": 6861.1708787456,
      "eccentricity": 8.45e-05,
      "inclination_deg": 42.999,
      "raan_deg": 173.0279,
      "arg_perigee_deg": 297.9295,
      "mean_anomaly_deg": 62.1471,
      "mean_motion_rev_day": 15.27585082
    },
    {
      "epoch": "2026-03-30T13:45:00.469440Z",
      "apogee_km": 483.9490500089951,
      "perigee_km": 481.97181895032645,
      "latitude_deg": -2.7013364680917907e-05,
      "longitude_deg": 136.96609265362778,
      "height_km": 482.5514294844458,
      "semi_major_axis_km": 6861.0974344796605,
      "eccentricity": 0.00014409,
      "inclination_deg": 42.9999,
      "raan_deg": 171.1808,
      "arg_perigee_deg": 280.8287,
      "mean_anomaly_deg": 79.2402,
      "mean_motion_rev_day": 15.2760961
    },
    {
      "epoch": "2026-03-30T21:35:47.190336Z",
      "apogee_km": 483.7083488359749,
      "perigee_km": 482.1928718046074,
      "latitude_deg": 7.677875250483012e-06,
      "longitude_deg": 17.102223070685504,
      "height_km": 482.4633716698808,
      "semi_major_axis_km": 6861.087610320291,
      "eccentricity": 0.00011044,
      "inclination_deg": 42.9991,
      "raan_deg": 169.3338,
      "arg_perigee_deg": 290.3545,
      "mean_anomaly_deg": 69.7188,
      "mean_motion_rev_day": 15.27612891
    },
    {
      "epoch": "2026-03-31T14:51:30.412800Z",
      "apogee_km": 483.862932701104,
      "perigee_km": 482.1558794752691,
      "latitude_deg": -2.6988388424281654e-06,
      "longitude_deg": 113.40229398334716,
      "height_km": 482.78790512752624,
      "semi_major_axis_km": 6861.146406088186,
      "eccentricity": 0.0001244,
      "inclination_deg": 42.9994,
      "raan_deg": 165.2729,
      "arg_perigee_deg": 269.866,
      "mean_anomaly_deg": 90.2049,
      "mean_motion_rev_day": 15.27593255
    },
    {
      "epoch": "2026-04-01T20:40:28.836768Z",
      "apogee_km": 484.355987317429,
      "perigee_km": 481.6101670625376,
      "latitude_deg": -1.7291436802058334e-06,
      "longitude_deg": 17.91815440544564,
      "height_km": 482.5483586014357,
      "semi_major_axis_km": 6861.120077189983,
      "eccentricity": 0.0002001,
      "inclination_deg": 43.0006,
      "raan_deg": 158.2567,
      "arg_perigee_deg": 278.8817,
      "mean_anomaly_deg": 81.1808,
      "mean_motion_rev_day": 15.27602048
    },
    {
      "epoch": "2026-04-02T20:12:49.821984Z",
      "apogee_km": 483.7669946197084,
      "perigee_km": 482.1271955209859,
      "latitude_deg": -7.131753563139182e-06,
      "longitude_deg": 18.324891946369142,
      "height_km": 482.65329955141397,
      "semi_major_axis_km": 6861.084095070347,
      "eccentricity": 0.0001195,
      "inclination_deg": 42.9967,
      "raan_deg": 152.7176,
      "arg_perigee_deg": 274.8949,
      "mean_anomaly_deg": 85.1766,
      "mean_motion_rev_day": 15.27614065
    },
    {
      "epoch": "2026-04-02T20:12:49.822848Z",
      "apogee_km": 483.7667201763443,
      "perigee_km": 482.12746996435,
      "latitude_deg": -1.0265236233946942e-05,
      "longitude_deg": 18.324884994445767,
      "height_km": 482.65332296576406,
      "semi_major_axis_km": 6861.084095070347,
      "eccentricity": 0.00011946,
      "inclination_deg": 42.9967,
      "raan_deg": 152.7176,
      "arg_perigee_deg": 274.8949,
      "mean_anomaly_deg": 85.1766,
      "mean_motion_rev_day": 15.27614065
    },
    {
      "epoch": "2026-04-03T04:03:36.477216Z",
      "apogee_km": 483.04735892822646,
      "perigee_km": 482.77168207903196,
      "latitude_deg": -2.020753577587216e-05,
      "longitude_deg": -101.53475450856222,
      "height_km": 482.8226271719066,
      "semi_major_axis_km": 6861.046520503629,
      "eccentricity": 2.009e-05,
      "inclination_deg": 42.9995,
      "raan_deg": 150.8746,
      "arg_perigee_deg": 178.3554,
      "mean_anomaly_deg": 181.7298,
      "mean_motion_rev_day": 15.27626614
    },
    {
      "epoch": "2026-04-04T03:35:57.363072Z",
      "apogee_km": 483.6512597556339,
      "perigee_km": 482.17736871230954,
      "latitude_deg": -1.3418277181689704e-05,
      "longitude_deg": -101.1304897934858,
      "height_km": 483.3102897318642,
      "semi_major_axis_km": 6861.051314233971,
      "eccentricity": 0.00010741,
      "inclination_deg": 43.0026,
      "raan_deg": 145.3326,
      "arg_perigee_deg": 212.7502,
      "mean_anomaly_deg": 147.3283,
      "mean_motion_rev_day": 15.27625013
    },
    {
      "epoch": "2026-04-05T12:33:16.081056Z",
      "apogee_km": 484.28717610224794,
      "perigee_km": 481.8382766959003,
      "latitude_deg": -7.975810159435412e-06,
      "longitude_deg": 115.43290071533744,
      "height_km": 482.8228446865182,
      "semi_major_axis_km": 6861.199726399073,
      "eccentricity": 0.00017846,
      "inclination_deg": 43.0004,
      "raan_deg": 137.5774,
      "arg_perigee_deg": 270.7927,
      "mean_anomaly_deg": 89.272,
      "mean_motion_rev_day": 15.27575448
    },
    {
      "epoch": "2026-04-06T04:14:49.810560Z",
      "apogee_km": 484.09069063353763,
      "perigee_km": 481.9177672063388,
      "latitude_deg": -4.814992493193503e-05,
      "longitude_deg": -124.295259419316,
      "height_km": 482.9940416698126,
      "semi_major_axis_km": 6861.141228919938,
      "eccentricity": 0.00015835,
      "inclination_deg": 42.9995,
      "raan_deg": 133.8843,
      "arg_perigee_deg": 258.6903,
      "mean_anomaly_deg": 101.377,
      "mean_motion_rev_day": 15.27594984
    },
    {
      "epoch": "2026-04-07T08:29:37.983840Z",
      "apogee_km": 483.71364053628895,
      "perigee_km": 482.22779904848994,
      "latitude_deg": 2.586899821266816e-05,
      "longitude_deg": 164.1973430824441,
      "height_km": 482.7757465201092,
      "semi_major_axis_km": 6861.107719792389,
      "eccentricity": 0.00010828,
      "inclination_deg": 43.0,
      "raan_deg": 127.2376,
      "arg_perigee_deg": 267.7934,
      "mean_anomaly_deg": 92.2794,
      "mean_motion_rev_day": 15.27606175
    },
    {
      "epoch": "2026-04-08T09:36:07.977312Z",
      "apogee_km": 484.216508987417,
      "perigee_km": 481.71577411438466,
      "latitude_deg": -2.4084979816438964e-05,
      "longitude_deg": 140.63085134419177,
      "height_km": 482.83535273102547,
      "semi_major_axis_km": 6861.103141550901,
      "eccentricity": 0.00018224,
      "inclination_deg": 42.9994,
      "raan_deg": 121.3273,
      "arg_perigee_deg": 265.7687,
      "mean_anomaly_deg": 94.2956,
      "mean_motion_rev_day": 15.27607704
    },
    {
      "epoch": "2026-04-09T01:17:41.871840Z",
      "apogee_km": 483.8829974178898,
      "perigee_km": 482.1436958050235,
      "latitude_deg": 2.2802456884945275e-05,
      "longitude_deg": -99.0947061410308,
      "height_km": 482.7310934116616,
      "semi_major_axis_km": 6861.150346611456,
      "eccentricity": 0.00012675,
      "inclination_deg": 42.9995,
      "raan_deg": 117.6374,
      "arg_perigee_deg": 273.8763,
      "mean_anomaly_deg": 86.1944,
      "mean_motion_rev_day": 15.27591939
    },
    {
      "epoch": "2026-04-10T07:06:40.152384Z",
      "apogee_km": 483.7745757868079,
      "perigee_km": 482.28433043319274,
      "latitude_deg": 9.541774042010969e-06,
      "longitude_deg": 165.42113328543002,
      "height_km": 482.6241975644656,
      "semi_major_axis_km": 6861.1664531100005,
      "eccentricity": 0.0001086,
      "inclination_deg": 42.9995,
      "raan_deg": 110.6206,
      "arg_perigee_deg": 284.1085,
      "mean_anomaly_deg": 75.9646,
      "mean_motion_rev_day": 15.2758656
    },
    {
      "epoch": "2026-04-11T09:47:19.485024Z",
      "apogee_km": 485.09187114593624,
      "perigee_km": 480.91206528649855,
      "latitude_deg": -1.5935032081561368e-05,
      "longitude_deg": 117.88570801589307,
      "height_km": 482.65550846711125,
      "semi_major_axis_km": 6861.138968216217,
      "eccentricity": 0.0003046,
      "inclination_deg": 43.0047,
      "raan_deg": 104.3447,
      "arg_perigee_deg": 273.4256,
      "mean_anomaly_deg": 86.6247,
      "mean_motion_rev_day": 15.27595739
    },
    {
      "epoch": "2026-04-13T05:43:42.719232Z",
      "apogee_km": 484.07256474921724,
      "perigee_km": 482.00446922488754,
      "latitude_deg": 3.688864471628687e-05,
      "longitude_deg": 166.64321091122235,
      "height_km": 482.73275233597917,
      "semi_major_axis_km": 6861.175516987052,
      "eccentricity": 0.00015071,
      "inclination_deg": 43.0018,
      "raan_deg": 94.0035,
      "arg_perigee_deg": 274.5905,
      "mean_anomaly_deg": 85.4775,
      "mean_motion_rev_day": 15.27583533
    }
  ]
}